COSMOS 2419 (714)       
1 28915U 05050A   16303.73357899 -.00000027  00000-0  00000-0 0  9999
2 28915  65.3861  73.6230 0014341 358.5228  41.5896  2.13104970 84421
COSMOS 2425 (716)       
1 29670U 06062A   16303.60958306 -.00000019  00000-0  10000-3 0  9993
2 29670  65.5729 312.6336 0020960 337.6625  23.0753  2.13104964 76624
COSMOS 2426 (717)       
1 29671U 06062B   16303.52852619 -.00000018  00000-0  10000-3 0  9994
2 29671  65.5896 312.7210 0017877 174.6045 343.8870  2.13102990 76620
COSMOS 2424 (715)       
1 29672U 06062C   16303.57853471 -.00000019  00000-0  10000-3 0  9998
2 29672  65.5751 312.6451 0017367 173.6297 199.2396  2.13102259 76623
COSMOS 2433 (720)       
1 32275U 07052A   16303.43873858 -.00000028  00000-0  10000-3 0  9997
2 32275  65.4009  73.4072 0001809 206.8532 214.9404  2.13104835 70134
COSMOS 2432 (719)       
1 32276U 07052B   16303.73402858 -.00000027  00000-0  10000-3 0  9998
2 32276  65.4138  73.4652 0009731 343.4769 258.3589  2.13104091 70134
COSMOS 2434 (721)       
1 32393U 07065A   16303.62446273 -.00000020  00000-0  00000-0 0  9998
2 32393  65.1909 311.8917 0002867 159.2309 296.1090  2.13102895 68848
COSMOS 2436 (723)       
1 32395U 07065C   16303.62157811 -.00000020  00000-0  10000-3 0  9991
2 32395  65.2035 311.9369 0016200 343.8563 201.2930  2.13102880 68778
COSMOS 2443 (725)       
1 33379U 08046B   16303.92239029 -.00000028  00000-0  10000-3 0  9997
2 33379  65.3308  72.7945 0017272 180.5130 155.6555  2.13100934 63007
COSMOS 2456 (730)       
1 36111U 09070A   16303.56705693  .00000031  00000-0  00000-0 0  9996
2 36111  64.1797 191.4648 0004226 319.3456 262.1180  2.13103002 53501
COSMOS 2457 (733)       
1 36112U 09070B   16303.35036828  .00000029  00000-0  00000-0 0  9998
2 36112  64.1612 191.3962 0006543 164.3595  20.5041  2.13101725 53504
COSMOS 2458 (734)       
1 36113U 09070C   16303.73470234  .00000032  00000-0  10000-3 0  9992
2 36113  64.1665 191.3893 0001522  22.7232 144.6312  2.13101874 53518
COSMOS 2459 (731)       
1 36400U 10007A   16303.63748933 -.00000029  00000-0  10000-3 0  9993
2 36400  65.3095  72.5340 0026333 356.2401  82.1946  2.13102186 51866
COSMOS 2461 (735)       
1 36401U 10007B   16303.70746852 -.00000029  00000-0  10000-3 0  9990
2 36401  65.3026  72.5122 0007807  83.7137 319.0106  2.13102228 51869
COSMOS 2460 (732)       
1 36402U 10007C   16303.66896985 -.00000029  00000-0  10000-3 0  9999
2 36402  65.2927  72.4891 0002197 123.7195 291.1006  2.13101850 51866
COSMOS 2465 (737)       
1 37138U 10041B   16303.69019413 -.00000021  00000-0  00000+0 0  9997
2 37138  64.7900 311.9946 0036298 175.9591  13.0318  2.13103415 47937
COSMOS 2464 (736)       
1 37139U 10041C   16303.68220639 -.00000021  00000-0  00000-0 0  9992
2 37139  64.7966 311.9918 0021126   5.8582   1.4836  2.13102630 47949
COSMOS 2471 (701K)      
1 37372U 11009A   16303.50023804 -.00000030  00000-0  00000+0 0  9991
2 37372  65.2915  72.4442 0007504 222.6666 195.7443  2.13102763 44131
COSMOS 2474 (742)       
1 37829U 11055A   16303.60553527  .00000031  00000-0  00000-0 0  9991
2 37829  64.5033 191.9320 0007805 250.0464 221.7456  2.13101971 39507
COSMOS 2476 (744)       
1 37867U 11064A   16303.62976642  .00000031  00000-0  00000-0 0  9992
2 37867  64.4820 192.0089 0016928 245.0594 291.1961  2.13101976 38854
COSMOS 2477 (745)       
1 37868U 11064B   16303.53995704  .00000030  00000-0  00000+0 0  9991
2 37868  64.4906 192.0545 0014825 246.4391  40.1718  2.13101910 38806
COSMOS 2475 (743)       
1 37869U 11064C   16303.61446939  .00000031  00000-0  00000-0 0  9994
2 37869  64.4982 192.0404 0020031 274.0944  25.9352  2.13102249 38814
COSMOS 2485 (747)       
1 39155U 13019A   16303.50191809  .00000030  00000-0  00000-0 0  9996
2 39155  64.6530 191.9928 0017281 239.5405 243.7389  2.13102075 27326
COSMOS 2492 (754)       
1 39620U 14012A   16303.60901874 -.00000030  00000-0  10000-3 0  9994
2 39620  65.1824  72.4603 0013109 336.0381 262.9953  2.13103418 20278
COSMOS 2500 (755)       
1 40001U 14032A   16303.51298042 -.00000030  00000-0  00000-0 0  9993
2 40001  65.1222  72.4774 0006758 187.6121 201.2620  2.13102852 18497
COSMOS 2501 (702K)      
1 40315U 14075A   16303.49765675 -.00000022  00000-0  00000-0 0  9997
2 40315  64.5618 313.4142 0019681 235.0649 302.7307  2.13101650 14890
COSMOS 2514 (751)       
1 41330U 16008A   16303.64441287 -.00000030  00000-0  00000-0 0  9999
2 41330  64.9231  72.6752 0009493 202.2454 106.8439  2.13103448  5654
COSMOS 2516 (753)       
1 41554U 16032A   16303.62142763 -.00000021  00000-0  00000+0 0  9998
2 41554  64.7426 313.1174 0014246 227.9202 317.4837  2.13101594  3261
